"Hale-Bopp:C 1995 O1 (Hale-Bopp):Great Comet of 1997" "Sol"
{
	Class		"comet"
	Mesh		"asteroid.cms"
	Texture	"asteroid.jpg"
	Radius	 30.00				# D = 30.0 km

	EllipticalOrbit
	{
		Epoch			2459837.500000	# 2022-Sept-15, 00:00
		Period		   2363.530468136978
		SemiMajorAxis	    177.4333839117583
		Eccentricity	      0.9949810027633206 
		Inclination	     89.28759424740302
		AscendingNode	    282.7334213961641
		ArgOfPericenter	    130.4146670659176
		MeanAnomaly	      3.878386339423241
	}

	# Estimate of rotation period from here: http://www.usafa.af.mil/dfp/research/astro/papers/icqpaper.htm
	RotationPeriod	11.47
	GeomAlbedo		 0.07
	InfoURL	"https://en.wikipedia.org/wiki/Comet_Hale-Bopp"
}

"Hyakutake:C 1996 B2 (Hyakutake):Great Comet of 1996" "Sol"
{
	Class		"comet"
	Mesh		"asteroid.cms"
	Texture	"asteroid.jpg"
	Radius	 2.10					# D = 4.2 km

	EllipticalOrbit
	{
		Epoch			2450157.500000	# 1996-Mar-15, 00:00
		Period		  97942.59992726530
		SemiMajorAxis	   2124.755444393889
		Eccentricity	      0.9998916470450123 
		Inclination	    124.9220493922234
		AscendingNode	    188.045131992156
		ArgOfPericenter	    130.1751209780967
		MeanAnomaly	    359.9995230582502
	}

	# Rotation period from Schleicher (1998)
	# https://doi.org/10.1006/icar.1997.5881

	RotationPeriod	 6.23
	GeomAlbedo		 0.04
	InfoURL	"https://en.wikipedia.org/wiki/Comet_Hale-Bopp"
}

"NEOWISE:C 2020 F3 (NEOWISE):Great Comet of 2020" "Sol"
{
	Class		"comet"
	Mesh		"asteroid.cms"
	Texture	"asteroid.jpg"
	Radius	 2.50					# D = 5.0 km

	EllipticalOrbit
	{
		Epoch			2459036.500000	# 2020-Jul-06, 00:00
		Period		   6787.091630382272
		SemiMajorAxis	    358.4679565529321
		Eccentricity	      0.9991780262531292 
		Inclination	    128.9375027594809
		AscendingNode	     61.01042818536988
		ArgOfPericenter	     37.2786584481257
		MeanAnomaly	      0.0003370720801246702
	}

	# Rotation period from Drahus (2020)
	# http://astronomerstelegram.org/?read=13945

	RotationPeriod	 7.58
	GeomAlbedo		 0.04
	InfoURL	"https://en.wikipedia.org/wiki/Comet_NEOWISE"
}
 
"ZTF:C 2022 E3 (ZTF)" "Sol"
{
	Class		"comet"
	Mesh		"asteroid.cms"
	Texture	"asteroid.jpg"
	Radius	 0.50					# D = 1.0 km

	# Inbound elliptical barycentric orbit is used (2022)
	# https://ssd.jpl.nasa.gov/horizons/app.html#/

	EllipticalOrbit
	{
		Epoch			2459873.500000	# 2022-Oct-21, 00:00
		Period		  14733.141618661529719
		SemiMajorAxis	    600.9716541841663
		Eccentricity	      0.9981399312831263 
		Inclination	    109.4392225804860
		AscendingNode	    302.6719351300542
		ArgOfPericenter	    145.7486599455753
		MeanAnomaly	    359.9943929771707
	}

	# Rotation period from Manzini (2023)
	# http://astronomerstelegram.org/?read=15909

	RotationPeriod	 8.50
	GeomAlbedo		 0.04
	InfoURL	"https://en.wikipedia.org/wiki/C/2022_E3_(ZTF)"
}

"Tsuchinshan-ATLAS:C 2023 A3 (Tsuchinshan-ATLAS):Great Comet of 2024" "Sol"
{
	Class		"comet"
	Mesh		"asteroid.cms"
	Texture	"asteroid.jpg"
	Radius	 1.60					# D = 3.2 km, dubious

	# Comet is currently on a hyperbolic ejection trajectory
	# since 1900. Inbound barycentric orbit is used (2024)
	# https://ssd.jpl.nasa.gov/horizons/app.html#/

	OrbitFrame
	{	EclipticJ2000	{ Center "SSB" }	}
	EllipticalOrbit
	{
		Epoch			2460570.625000	# 2024-Sept-17, 03:00
		Period		  93847.454727929158253
		SemiMajorAxis	   2065.08886494021
		Eccentricity	      0.9998133246305106 
		Inclination	    138.9767058917233
		AscendingNode	     21.50257662712503
		ArgOfPericenter	    309.3893250633092
		MeanAnomaly	    359.99998857859469
	}

	# Actual rotation period is currently unknown
	# February 2025

	RotationPeriod	 6.00
	GeomAlbedo		 0.04
	InfoURL	"https://en.wikipedia.org/wiki/C/2023_A3_(Tsuchinshan-ATLAS)"
}
